[Satellite]
VERSION=1.1
NAME=CZ-6A DEB
NICKNAME=CZ-6A DEB
TLE1=1 54262U 22151D   22342.27947625  .00000990  00000+0  10787-2 0  9997
TLE2=2 54262  98.9617 345.6797 0285277 359.8300   0.2702 13.58741678  3544
STATUS=0
